KUIPER-00027            
1 63740U 25088S   25210.17575413  .00017748  00000+0  47300-3 0  9999
2 63740  51.8726  16.9777 0001715  81.9648 278.1533 15.38237973 14336
KUIPER-00028            
1 63741U 25088T   25210.42667561  .00017291  00000+0  45975-3 0  9993
2 63741  51.8712  15.6569 0001649  63.3135 296.8021 15.38329905 14783
KUIPER-00029            
1 63742U 25088U   25210.15824135  .00016289  00000+0  45076-3 0  9994
2 63742  51.8699  17.5852 0004973  84.3933 275.7620 15.37129908 14260
KUIPER-00030            
1 63743U 25088V   25210.20451819  .00015663  00000+0  91172-3 0  9999
2 63743  51.8859  21.6368 0012581  63.7445 296.4823 15.12128258 14490
KUIPER-00031            
1 63744U 25088W   25210.19089005  .00015289  00000+0  41434-3 0  9992
2 63744  51.8710  17.0660 0004043  78.7211 281.4230 15.37835189 14279
KUIPER-00032            
1 63745U 25088X   25210.58335648 -.00354003  00000+0 -11505-1 0  9999
2 63745  51.8720  15.4325 0003956  67.8681 168.3135 15.32844652  4358
KUIPER-00033            
1 63746U 25088Y   25210.23895495  .00002062  00000+0  30029-3 0  9990
2 63746  51.9018  34.6989 0003348 145.5419 214.5761 14.79812546 14512
KUIPER-00034            
1 63747U 25088Z   25210.17192909  .00013983  00000+0  37831-3 0  9996
2 63747  51.8718  16.9500 0002065  94.2555 265.8668 15.37968049 14438
