<?xml version="1.0" encoding="UTF-8"?>
<ndm xmlns:xsi="http://www.w3.org/2001/XMLSchema-instance" xsi:noNamespaceSchemaLocation="https://sanaregistry.org/r/ndmxml_unqualified/ndmxml-2.0.0-master-2.0.xsd">
<omm id="CCSDS_OMM_VERS" version="2.0">
<header><CREATION_DATE/><ORIGINATOR/></header><body><segment><metadata><OBJECT_NAME>KUIPER-00027</OBJECT_NAME><OBJECT_ID>2025-088S</OBJECT_ID><CENTER_NAME>EARTH</CENTER_NAME><REF_FRAME>TEME</REF_FRAME><TIME_SYSTEM>UTC</TIME_SYSTEM><MEAN_ELEMENT_THEORY>SGP4</MEAN_ELEMENT_THEORY></metadata><data><meanElements><EPOCH>2025-07-29T04:13:05.156832</EPOCH><MEAN_MOTION>15.38237973</MEAN_MOTION><ECCENTRICITY>.0001715</ECCENTRICITY><INCLINATION>51.8726</INCLINATION><RA_OF_ASC_NODE>16.9777</RA_OF_ASC_NODE><ARG_OF_PERICENTER>81.9648</ARG_OF_PERICENTER><MEAN_ANOMALY>278.1533</MEAN_ANOMALY></meanElements><tleParameters><EPHEMERIS_TYPE>0</EPHEMERIS_TYPE><CLASSIFICATION_TYPE>U</CLASSIFICATION_TYPE><NORAD_CAT_ID>63740</NORAD_CAT_ID><ELEMENT_SET_NO>999</ELEMENT_SET_NO><REV_AT_EPOCH>1433</REV_AT_EPOCH><BSTAR>.473E-3</BSTAR><MEAN_MOTION_DOT>.17748E-3</MEAN_MOTION_DOT><MEAN_MOTION_DDOT>0</MEAN_MOTION_DDOT></tleParameters></data></segment></body></omm>
<omm id="CCSDS_OMM_VERS" version="2.0">
<header><CREATION_DATE/><ORIGINATOR/></header><body><segment><metadata><OBJECT_NAME>KUIPER-00028</OBJECT_NAME><OBJECT_ID>2025-088T</OBJECT_ID><CENTER_NAME>EARTH</CENTER_NAME><REF_FRAME>TEME</REF_FRAME><TIME_SYSTEM>UTC</TIME_SYSTEM><MEAN_ELEMENT_THEORY>SGP4</MEAN_ELEMENT_THEORY></metadata><data><meanElements><EPOCH>2025-07-29T10:14:24.772704</EPOCH><MEAN_MOTION>15.38329905</MEAN_MOTION><ECCENTRICITY>.0001649</ECCENTRICITY><INCLINATION>51.8712</INCLINATION><RA_OF_ASC_NODE>15.6569</RA_OF_ASC_NODE><ARG_OF_PERICENTER>63.3135</ARG_OF_PERICENTER><MEAN_ANOMALY>296.8021</MEAN_ANOMALY></meanElements><tleParameters><EPHEMERIS_TYPE>0</EPHEMERIS_TYPE><CLASSIFICATION_TYPE>U</CLASSIFICATION_TYPE><NORAD_CAT_ID>63741</NORAD_CAT_ID><ELEMENT_SET_NO>999</ELEMENT_SET_NO><REV_AT_EPOCH>1478</REV_AT_EPOCH><BSTAR>.45975E-3</BSTAR><MEAN_MOTION_DOT>.17291E-3</MEAN_MOTION_DOT><MEAN_MOTION_DDOT>0</MEAN_MOTION_DDOT></tleParameters></data></segment></body></omm>
<omm id="CCSDS_OMM_VERS" version="2.0">
<header><CREATION_DATE/><ORIGINATOR/></header><body><segment><metadata><OBJECT_NAME>KUIPER-00029</OBJECT_NAME><OBJECT_ID>2025-088U</OBJECT_ID><CENTER_NAME>EARTH</CENTER_NAME><REF_FRAME>TEME</REF_FRAME><TIME_SYSTEM>UTC</TIME_SYSTEM><MEAN_ELEMENT_THEORY>SGP4</MEAN_ELEMENT_THEORY></metadata><data><meanElements><EPOCH>2025-07-29T03:47:52.052640</EPOCH><MEAN_MOTION>15.37129908</MEAN_MOTION><ECCENTRICITY>.0004973</ECCENTRICITY><INCLINATION>51.8699</INCLINATION><RA_OF_ASC_NODE>17.5852</RA_OF_ASC_NODE><ARG_OF_PERICENTER>84.3933</ARG_OF_PERICENTER><MEAN_ANOMALY>275.7620</MEAN_ANOMALY></meanElements><tleParameters><EPHEMERIS_TYPE>0</EPHEMERIS_TYPE><CLASSIFICATION_TYPE>U</CLASSIFICATION_TYPE><NORAD_CAT_ID>63742</NORAD_CAT_ID><ELEMENT_SET_NO>999</ELEMENT_SET_NO><REV_AT_EPOCH>1426</REV_AT_EPOCH><BSTAR>.45076E-3</BSTAR><MEAN_MOTION_DOT>.16289E-3</MEAN_MOTION_DOT><MEAN_MOTION_DDOT>0</MEAN_MOTION_DDOT></tleParameters></data></segment></body></omm>
<omm id="CCSDS_OMM_VERS" version="2.0">
<header><CREATION_DATE/><ORIGINATOR/></header><body><segment><metadata><OBJECT_NAME>KUIPER-00030</OBJECT_NAME><OBJECT_ID>2025-088V</OBJECT_ID><CENTER_NAME>EARTH</CENTER_NAME><REF_FRAME>TEME</REF_FRAME><TIME_SYSTEM>UTC</TIME_SYSTEM><MEAN_ELEMENT_THEORY>SGP4</MEAN_ELEMENT_THEORY></metadata><data><meanElements><EPOCH>2025-07-29T04:54:30.371616</EPOCH><MEAN_MOTION>15.12128258</MEAN_MOTION><ECCENTRICITY>.0012581</ECCENTRICITY><INCLINATION>51.8859</INCLINATION><RA_OF_ASC_NODE>21.6368</RA_OF_ASC_NODE><ARG_OF_PERICENTER>63.7445</ARG_OF_PERICENTER><MEAN_ANOMALY>296.4823</MEAN_ANOMALY></meanElements><tleParameters><EPHEMERIS_TYPE>0</EPHEMERIS_TYPE><CLASSIFICATION_TYPE>U</CLASSIFICATION_TYPE><NORAD_CAT_ID>63743</NORAD_CAT_ID><ELEMENT_SET_NO>999</ELEMENT_SET_NO><REV_AT_EPOCH>1449</REV_AT_EPOCH><BSTAR>.91172E-3</BSTAR><MEAN_MOTION_DOT>.15663E-3</MEAN_MOTION_DOT><MEAN_MOTION_DDOT>0</MEAN_MOTION_DDOT></tleParameters></data></segment></body></omm>
<omm id="CCSDS_OMM_VERS" version="2.0">
<header><CREATION_DATE/><ORIGINATOR/></header><body><segment><metadata><OBJECT_NAME>KUIPER-00031</OBJECT_NAME><OBJECT_ID>2025-088W</OBJECT_ID><CENTER_NAME>EARTH</CENTER_NAME><REF_FRAME>TEME</REF_FRAME><TIME_SYSTEM>UTC</TIME_SYSTEM><MEAN_ELEMENT_THEORY>SGP4</MEAN_ELEMENT_THEORY></metadata><data><meanElements><EPOCH>2025-07-29T04:34:52.900320</EPOCH><MEAN_MOTION>15.37835189</MEAN_MOTION><ECCENTRICITY>.0004043</ECCENTRICITY><INCLINATION>51.8710</INCLINATION><RA_OF_ASC_NODE>17.0660</RA_OF_ASC_NODE><ARG_OF_PERICENTER>78.7211</ARG_OF_PERICENTER><MEAN_ANOMALY>281.4230</MEAN_ANOMALY></meanElements><tleParameters><EPHEMERIS_TYPE>0</EPHEMERIS_TYPE><CLASSIFICATION_TYPE>U</CLASSIFICATION_TYPE><NORAD_CAT_ID>63744</NORAD_CAT_ID><ELEMENT_SET_NO>999</ELEMENT_SET_NO><REV_AT_EPOCH>1427</REV_AT_EPOCH><BSTAR>.41434E-3</BSTAR><MEAN_MOTION_DOT>.15289E-3</MEAN_MOTION_DOT><MEAN_MOTION_DDOT>0</MEAN_MOTION_DDOT></tleParameters></data></segment></body></omm>
<omm id="CCSDS_OMM_VERS" version="2.0">
<header><CREATION_DATE/><ORIGINATOR/></header><body><segment><metadata><OBJECT_NAME>KUIPER-00032</OBJECT_NAME><OBJECT_ID>2025-088X</OBJECT_ID><CENTER_NAME>EARTH</CENTER_NAME><REF_FRAME>TEME</REF_FRAME><TIME_SYSTEM>UTC</TIME_SYSTEM><MEAN_ELEMENT_THEORY>SGP4</MEAN_ELEMENT_THEORY></metadata><data><meanElements><EPOCH>2025-07-29T14:00:01.999872</EPOCH><MEAN_MOTION>15.32844652</MEAN_MOTION><ECCENTRICITY>.0003956</ECCENTRICITY><INCLINATION>51.8720</INCLINATION><RA_OF_ASC_NODE>15.4325</RA_OF_ASC_NODE><ARG_OF_PERICENTER>67.8681</ARG_OF_PERICENTER><MEAN_ANOMALY>168.3135</MEAN_ANOMALY></meanElements><tleParameters><EPHEMERIS_TYPE>0</EPHEMERIS_TYPE><CLASSIFICATION_TYPE>U</CLASSIFICATION_TYPE><NORAD_CAT_ID>63745</NORAD_CAT_ID><ELEMENT_SET_NO>999</ELEMENT_SET_NO><REV_AT_EPOCH>435</REV_AT_EPOCH><BSTAR>-.11505E-1</BSTAR><MEAN_MOTION_DOT>-.354003E-2</MEAN_MOTION_DOT><MEAN_MOTION_DDOT>0</MEAN_MOTION_DDOT></tleParameters></data></segment></body></omm>
<omm id="CCSDS_OMM_VERS" version="2.0">
<header><CREATION_DATE/><ORIGINATOR/></header><body><segment><metadata><OBJECT_NAME>KUIPER-00033</OBJECT_NAME><OBJECT_ID>2025-088Y</OBJECT_ID><CENTER_NAME>EARTH</CENTER_NAME><REF_FRAME>TEME</REF_FRAME><TIME_SYSTEM>UTC</TIME_SYSTEM><MEAN_ELEMENT_THEORY>SGP4</MEAN_ELEMENT_THEORY></metadata><data><meanElements><EPOCH>2025-07-29T05:44:05.707680</EPOCH><MEAN_MOTION>14.79812546</MEAN_MOTION><ECCENTRICITY>.0003348</ECCENTRICITY><INCLINATION>51.9018</INCLINATION><RA_OF_ASC_NODE>34.6989</RA_OF_ASC_NODE><ARG_OF_PERICENTER>145.5419</ARG_OF_PERICENTER><MEAN_ANOMALY>214.5761</MEAN_ANOMALY></meanElements><tleParameters><EPHEMERIS_TYPE>0</EPHEMERIS_TYPE><CLASSIFICATION_TYPE>U</CLASSIFICATION_TYPE><NORAD_CAT_ID>63746</NORAD_CAT_ID><ELEMENT_SET_NO>999</ELEMENT_SET_NO><REV_AT_EPOCH>1451</REV_AT_EPOCH><BSTAR>.30029E-3</BSTAR><MEAN_MOTION_DOT>.2062E-4</MEAN_MOTION_DOT><MEAN_MOTION_DDOT>0</MEAN_MOTION_DDOT></tleParameters></data></segment></body></omm>
<omm id="CCSDS_OMM_VERS" version="2.0">
<header><CREATION_DATE/><ORIGINATOR/></header><body><segment><metadata><OBJECT_NAME>KUIPER-00034</OBJECT_NAME><OBJECT_ID>2025-088Z</OBJECT_ID><CENTER_NAME>EARTH</CENTER_NAME><REF_FRAME>TEME</REF_FRAME><TIME_SYSTEM>UTC</TIME_SYSTEM><MEAN_ELEMENT_THEORY>SGP4</MEAN_ELEMENT_THEORY></metadata><data><meanElements><EPOCH>2025-07-29T04:07:34.673376</EPOCH><MEAN_MOTION>15.37968049</MEAN_MOTION><ECCENTRICITY>.0002065</ECCENTRICITY><INCLINATION>51.8718</INCLINATION><RA_OF_ASC_NODE>16.9500</RA_OF_ASC_NODE><ARG_OF_PERICENTER>94.2555</ARG_OF_PERICENTER><MEAN_ANOMALY>265.8668</MEAN_ANOMALY></meanElements><tleParameters><EPHEMERIS_TYPE>0</EPHEMERIS_TYPE><CLASSIFICATION_TYPE>U</CLASSIFICATION_TYPE><NORAD_CAT_ID>63747</NORAD_CAT_ID><ELEMENT_SET_NO>999</ELEMENT_SET_NO><REV_AT_EPOCH>1443</REV_AT_EPOCH><BSTAR>.37831E-3</BSTAR><MEAN_MOTION_DOT>.13983E-3</MEAN_MOTION_DOT><MEAN_MOTION_DDOT>0</MEAN_MOTION_DDOT></tleParameters></data></segment></body></omm>

</ndm>
